{
    "links": {
        "self": "http://www.neowsapp.com/rest/v1/neo/3892193?api_key=iIulBulltgU6a56xZRHN4H3l9WmuAYTsLGpBGhQ2"
    },
    "id": "3892193",
    "neo_reference_id": "3892193",
    "name": "(2019 VD)",
    "designation": "2019 VD",
    "nasa_jpl_url": "http://ssd.jpl.nasa.gov/sbdb.cgi?sstr=3892193",
    "absolute_magnitude_h": 27.4,
    "estimated_diameter": {
        "kilometers": {
            "estimated_diameter_min": 0.0088014652,
            "estimated_diameter_max": 0.0196806745
        },
        "meters": {
            "estimated_diameter_min": 8.801465209,
            "estimated_diameter_max": 19.6806745089
        },
        "miles": {
            "estimated_diameter_min": 0.0054689752,
            "estimated_diameter_max": 0.0122290004
        },
        "feet": {
            "estimated_diameter_min": 28.8761991163,
            "estimated_diameter_max": 64.5691441559
        }
    },
    "is_potentially_hazardous_asteroid": false,
    "close_approach_data": [
        {
            "close_approach_date": "1907-07-28",
            "close_approach_date_full": "1907-Jul-28 07:16",
            "epoch_date_close_approach": -1970153040000,
            "relative_velocity": {
                "kilometers_per_second": "9.6103596454",
                "kilometers_per_hour": "34597.2947234143",
                "miles_per_hour": "21497.4134907793"
            },
            "miss_distance": {
                "astronomical": "0.1060792694",
                "lunar": "41.2648357966",
                "kilometers": "15869232.753396178",
                "miles": "9860683.9869681364"
            },
            "orbiting_body": "Venus"
        },
        {
            "close_approach_date": "2019-11-04",
            "close_approach_date_full": "2019-Nov-04 05:17",
            "epoch_date_close_approach": 1572844620000,
            "relative_velocity": {
                "kilometers_per_second": "12.8043791932",
                "kilometers_per_hour": "46095.7650955121",
                "miles_per_hour": "28642.1158172642"
            },
            "miss_distance": {
                "astronomical": "0.0017727832",
                "lunar": "0.6896126648",
                "kilometers": "265204.590691784",
                "miles": "164790.4912192592"
            },
            "orbiting_body": "Moon"
        },
        {
            "close_approach_date": "2019-11-04",
            "close_approach_date_full": "2019-Nov-04 09:56",
            "epoch_date_close_approach": 1572861360000,
            "relative_velocity": {
                "kilometers_per_second": "12.0033612297",
                "kilometers_per_hour": "43212.1004268764",
                "miles_per_hour": "26850.3187346889"
            },
            "miss_distance": {
                "astronomical": "0.0011650429",
                "lunar": "0.4532016881",
                "kilometers": "174287.936298623",
                "miles": "108297.5017940774"
            },
            "orbiting_body": "Earth"
        }
    ],
    "orbital_data": {
        "orbit_id": "3",
        "orbit_determination_date": "2019-11-04 08:43:34",
        "first_observation_date": "2019-10-28",
        "last_observation_date": "2019-11-03",
        "data_arc_in_days": 6,
        "observations_used": 35,
        "orbit_uncertainty": "7",
        "minimum_orbit_intersection": ".000863672",
        "jupiter_tisserand_invariant": "3.047",
        "epoch_osculation": "2459000.5",
        "eccentricity": ".6577056009438894",
        "semi_major_axis": "2.63382536886915",
        "inclination": ".356737319672476",
        "ascending_node_longitude": "229.1174934114277",
        "orbital_period": "1561.273152000187",
        "perihelion_distance": ".9015436718558045",
        "perihelion_argument": "211.7273405868412",
        "aphelion_distance": "4.366107065882495",
        "perihelion_time": "2458820.312735847341",
        "mean_anomaly": "41.54776825045253",
        "mean_motion": ".2305810482546215",
        "equinox": "J2000",
        "orbit_class": {
            "orbit_class_type": "APO",
            "orbit_class_description": "Near-Earth asteroid orbits which cross the Earth’s orbit similar to that of 1862 Apollo",
            "orbit_class_range": "a (semi-major axis) > 1.0 AU; q (perihelion) < 1.017 AU"
        }
    },
    "is_sentry_object": false
}